{
  "type": "FeatureCollection",
  "features": [
    {
      "type": "Feature",
      "properties": {
        "norad_id": 64903,
        "name": "CO3D 1",
        "group": "resource",
        "lat": 34.005673574630045,
        "lon": -104.83723872746121,
        "alt_km": 503.02056394647934,
        "timestamp": "2025-12-19T22:41:52.037190+00:00",
        "meta_object_name": "CO3D 1",
        "meta_object_id": "2025-156E",
        "meta_epoch": "2025-12-19T17:19:13.310976",
        "meta_mean_motion": 15.20191263,
        "meta_eccentricity": 9.8e-05,
        "meta_inclination": 97.4345,
        "meta_ra_of_asc_node": 69.8878,
        "meta_arg_of_pericenter": 68.6298,
        "meta_mean_anomaly": 291.5042,
        "meta_ephemeris_type": 0,
        "meta_classification_type": "U",
        "meta_norad_cat_id": 64903,
        "meta_element_set_no": 999,
        "meta_rev_at_epoch": 2226,
        "meta_bstar": 0.00020268,
        "meta_mean_motion_dot": 4.321e-05,
        "meta_mean_motion_ddot": 0,
        "tle_line1": "1 64903U 25156E   25353.72168184  .00004321  00000+0  20268-3 0  9996",
        "tle_line2": "2 64903  97.4345  69.8878 0000980  68.6298 291.5042 15.20191263 22263"
      },
      "geometry": {
        "type": "Point",
        "coordinates": [
          -104.83723872746121,
          34.005673574630045
        ]
      }
    },
    {
      "type": "Feature",
      "properties": {
        "norad_id": 66514,
        "name": "SENTINEL-6B",
        "group": "resource",
        "lat": -31.761466994004884,
        "lon": -16.562638568168364,
        "alt_km": 1336.81705325862,
        "timestamp": "2025-12-19T22:41:52.037201+00:00",
        "meta_object_name": "SENTINEL-6B",
        "meta_object_id": "2025-264A",
        "meta_epoch": "2025-12-12T06:01:21.428544",
        "meta_mean_motion": 12.81479578,
        "meta_eccentricity": 0.00078482,
        "meta_inclination": 66.0385,
        "meta_ra_of_asc_node": 163.4531,
        "meta_arg_of_pericenter": 270.1376,
        "meta_mean_anomaly": 89.874,
        "meta_ephemeris_type": 0,
        "meta_classification_type": "U",
        "meta_norad_cat_id": 66514,
        "meta_element_set_no": 999,
        "meta_rev_at_epoch": 322,
        "meta_bstar": 0.00018573353,
        "meta_mean_motion_dot": -1.8e-07,
        "meta_mean_motion_ddot": 0,
        "tle_line1": "1 66514U 25264A   25346.25094246 -.00000018  00000+0  18573-3 0  9999",
        "tle_line2": "2 66514  66.0385 163.4531 0007848 270.1376  89.8740 12.81479578  3223"
      },
      "geometry": {
        "type": "Point",
        "coordinates": [
          -16.562638568168364,
          -31.761466994004884
        ]
      }
    }
  ]
}